// Aster Physics Worker — Keplerian propagator + burn simulator
// Heliocentric Ecliptic J2000, positions in AU, velocities in km/s

const GM_sun = 1.327124400e20; // m³/s²
const AU = 1.496e11;           // m per AU
const J2000 = 2451545.0;       // JD of J2000 epoch
const TWO_PI = 2 * Math.PI;
const DEG = Math.PI / 180;
const GM_AU3_S2 = GM_sun / (AU * AU * AU); // ~3.964e-14 AU³/s²
const GM_earth  = 3.986004418e14;          // m³/s²
const R_earth   = 6.3781e6;               // m
const GM_moon   = 4902.0;                 // km³/s²
const R_moon    = 1737.4;                 // km
const R_cap     = R_moon + 5000;          // km — 5000 km altitude lunar capture orbit

// Standish 1992 planet elements at J2000 + secular rates
// Format: [a0, da, e0, de, i0, di, Om0, dOm, L0, dL, wb0, dwb]
// L = mean longitude (= Om + w + M), wb = longitude of perihelion (= Om + w)
// All angles in degrees; rates per Julian century
const PLANETS = [
  // Mercury
  [0.38709927, 0.00000037, 0.20563593, 0.00001906,
   7.00497902, -0.00594749, 48.33076593, -0.12534081,
   252.25032350, 149472.67411175, 77.45779628, 0.16047689],
  // Venus
  [0.72333566, 0.00000390, 0.00677672, -0.00004107,
   3.39467605, -0.00078890, 76.67984255, -0.27769418,
   181.97909950, 58517.81538729, 131.60246718, 0.00268329],
  // Earth
  [1.00000261, 0.00000562, 0.01671123, -0.00004392,
   -0.00001531, -0.01294668, 0.0, 0.0,
   100.46457166, 35999.37244981, 102.93768193, 0.32327364],
  // Mars
  [1.52371034, 0.00001847, 0.09339410, 0.00007882,
   1.84969142, -0.00813131, 49.55953891, -0.29257343,
   -4.55343205, 19140.30268499, -23.94362959, 0.44441088],
  // Jupiter
  [5.20288700, -0.00011607, 0.04838624, -0.00013253,
   1.30439695, -0.00183714, 100.47390909, 0.20469106,
   34.39644051, 3034.74612775, 14.72847983, 0.21252668],
  // Saturn
  [9.53667594, -0.00125060, 0.05386179, -0.00050991,
   2.48599187, 0.00193609, 113.66242448, -0.28867794,
   49.95424423, 1222.49362201, 92.59887831, -0.41897216],
  // Uranus
  [19.18916464, -0.00196176, 0.04725744, -0.00004397,
   0.77263783, -0.00242939, 74.01692503, 0.04240589,
   313.23810451, 428.48202785, 170.95427630, 0.40805281],
  // Neptune
  [30.06992276, 0.00026291, 0.00859048, 0.00005105,
   1.77004347, 0.00035372, 131.78422574, -0.00508664,
   -55.12002969, 218.45945325, 44.96476227, -0.32241464],
];

let asteroids = [];

const MISSION_GATE_DEP_KMS = 10.0;
const MISSION_GATE_TOTAL_KMS = 25.0;
const MISSION_HIGH_DV_KMS = 12.0;
const NHATS_DEFAULTS = { dv: '12', dur: '450', stay: '8' };
const DEFAULT_REDIRECT_CAPTURE = { key: 'lunar_orbit', label: 'Lunar Orbit', orbitRadiusKm: 6737, captureExtraDv: 1.7 };
const DEFAULT_REDIRECT_DELIVERY = { key: 'leo', label: 'Low Earth Orbit (LEO)', captureExtraDv: 0.0, deliveryExtraDv: 0.0, marketMultiplier: 1.0 };
const DEFAULT_REDIRECT_SPACECRAFT = { name: 'Medium Miner', dry_kg: 5000, payload_kg: 2000, isp: 320, cost_usd: 180e6 };
const DEFAULT_REDIRECT_LAUNCH = { name: 'Falcon 9', cost_per_kg: 2700, max_kg: 22800, label: 'Falcon 9' };

const FALLBACK_CATALOG = [
  { pdes: 433, full_name: '433 Eros (1898 DQ)', a: 1.45811225801466, e: 0.222735687791413, i: 10.82857013630658, om: 304.3062534664844, w: 178.8213653588039, ma: 47.23946575496196, epoch: 2458600.5, H: 11.16, spec: 'S', profit: 1.0779165041005357e-42, delta_v: 6.112354, price: 6.688146261052001e-42, pha: 'N', class: 'AMO', diameter: 16.84, albedo: 0.25, moid: 0.149341, last_obs: '2018-10-27', condition_code: 0 },
  { pdes: 719, full_name: '719 Albert (1911 MT)', a: 2.638780196295172, e: 0.5463009415651705, i: 11.5648447748565, om: 183.8872861432646, w: 156.1636682123583, ma: 48.31725263057137, epoch: 2458600.5, H: 15.4, spec: 'S', profit: 4.285173583378436e-43, delta_v: 7.724768, price: 4.123974587503586e-42, pha: 'N', class: 'AMO', diameter: null, albedo: null, moid: 0.203359, last_obs: '2018-11-03', condition_code: 0 },
  { pdes: 887, full_name: '887 Alinda (1918 DB)', a: 2.476487671729959, e: 0.5691156473282417, i: 9.384537356044309, om: 110.4284814357001, w: 350.4143214209113, ma: 193.4143465783937, epoch: 2458600.5, H: 13.4, spec: '?', profit: null, delta_v: 7.06642, price: null, pha: 'N', class: 'AMO', diameter: 4.2, albedo: 0.31, moid: 0.0865707, last_obs: '2018-07-12', condition_code: 0 },
  { pdes: 1036, full_name: '1036 Ganymed (1924 TD)', a: 2.664145334052341, e: 0.5332347372100545, i: 26.68761212144486, om: 215.5575038401243, w: 132.3963557605626, ma: 274.1561973977862, epoch: 2458600.5, H: 9.45, spec: 'S', profit: 7.107686773724316e-40, delta_v: 10.368777, price: 9.485008166604466e-39, pha: 'N', class: 'AMO', diameter: 37.675, albedo: 0.238, moid: 0.343497, last_obs: '2018-07-03', condition_code: 0 },
  { pdes: 1221, full_name: '1221 Amor (1932 EA1)', a: 1.91941566321919, e: 0.4353210351202446, i: 11.87652956555689, om: 171.3372302802219, w: 26.6748196824311, ma: 250.2803094387659, epoch: 2458600.5, H: 17.7, spec: '?', profit: null, delta_v: 6.687817, price: null, pha: 'N', class: 'AMO', diameter: 1, albedo: null, moid: 0.107716, last_obs: '2018-10-15', condition_code: 0 },
  { pdes: 1566, full_name: '1566 Icarus (1949 MA)', a: 1.077933978069936, e: 0.826810028209165, i: 22.85233700526169, om: 88.08176571328511, w: 31.29738216487599, ma: 33.0245871930141, epoch: 2453505.5, H: 16.9, spec: '?', profit: null, delta_v: 15.298098, price: null, pha: 'Y', class: 'APO', diameter: 1, albedo: 0.51, moid: 0.0350617, last_obs: '2018-07-26', condition_code: 0 },
  { pdes: 1580, full_name: '1580 Betulia (1950 KA)', a: 2.196729768306549, e: 0.4875957095290629, i: 52.098230224, om: 62.29224456812244, w: 159.5055235075437, ma: 74.0179593176497, epoch: 2458600.5, H: 14.7, spec: 'C', profit: 6934989326903.471, delta_v: 17.059994, price: 151930944581743.22, pha: 'N', class: 'AMO', diameter: 5.8, albedo: 0.08, moid: 0.135315, last_obs: '2018-07-17', condition_code: 0 },
  { pdes: 1620, full_name: '1620 Geographos (1951 RA)', a: 1.24530233955045, e: 0.3354404981112329, i: 13.33734833973119, om: 337.1953965589663, w: 276.9150418598405, ma: 311.5329572322354, epoch: 2458600.5, H: 15.6, spec: 'S', profit: 3.87743609006322e-43, delta_v: 6.747039, price: 2.97575945469195e-42, pha: 'Y', class: 'APO', diameter: 2.56, albedo: 0.29, moid: 0.0298285, last_obs: '2018-11-03', condition_code: 0 },
  { pdes: 1627, full_name: '1627 Ivar (1929 SH)', a: 1.863481492935208, e: 0.3966132591577319, i: 8.450368630107375, om: 133.1221704068903, w: 167.7698144036891, ma: 101.5580082429805, epoch: 2458600.5, H: 13.2, spec: 'S', profit: 1.993467397835755e-41, delta_v: 6.320181, price: 1.3454341325506982e-40, pha: 'N', class: 'AMO', diameter: 9.12, albedo: 0.15, moid: 0.11161, last_obs: '2018-11-02', condition_code: 0 },
  { pdes: 1685, full_name: '1685 Toro (1948 OA)', a: 1.367307961319918, e: 0.4358338371649736, i: 9.380085642650519, om: 274.3374253845515, w: 127.0621738468082, ma: 293.4107248356075, epoch: 2454917.5, H: 14.23, spec: 'S', profit: 9.273765410517366e-43, delta_v: 6.669782, price: 6.971314526034139e-42, pha: 'N', class: 'APO', diameter: 3.4, albedo: 0.31, moid: 0.0507715, last_obs: '2018-08-08', condition_code: 0 },
  { pdes: 1862, full_name: '1862 Apollo (1932 HA)', a: 1.470162312389734, e: 0.5597614018825802, i: 6.353445562610878, om: 35.73168803474559, w: 285.8593797344928, ma: 206.6290803122197, epoch: 2455958.5, H: 16.25, spec: 'Q', profit: 88356037.90588945, delta_v: 7.484202, price: 805034046.4611495, pha: 'Y', class: 'APO', diameter: 1.5, albedo: 0.25, moid: 0.025757, last_obs: '2017-05-17', condition_code: 0 },
];

function normalizeDesignation(raw) {
  return String(raw || '').replace(/[()]/g, ' ').replace(/\s+/g, ' ').trim().toUpperCase();
}

function parseFiniteOrNull(value) {
  const n = Number(value);
  return Number.isFinite(n) ? n : null;
}

function parsePositiveOrNull(value) {
  const n = Number(value);
  return Number.isFinite(n) && n > 0 ? n : null;
}

function parseEpochJD(value) {
  if (value === '' || value === null || value === undefined) return J2000;
  const n = Number(value);
  if (!Number.isFinite(n)) return null;
  if (n === 0) return J2000;
  return n > 2400000 ? n : null;
}

function buildNhatsUrl(overrides) {
  return 'https://aster-proxy.hudsonclavin.workers.dev/api/nhats?' + new URLSearchParams({
    ...NHATS_DEFAULTS,
    ...(overrides || {}),
  }).toString();
}

function buildSbdbQueryUrl(limit) {
  return 'https://aster-proxy.hudsonclavin.workers.dev/api/sbdb-query?' + new URLSearchParams({
    'sb-group': 'neo',
    'sb-kind': 'a',
    limit: String(limit),
    sort: 'moid',
    fields: 'spkid,full_name,pdes,name,class,neo,pha,moid,epoch,e,a,i,om,w,ma,per,last_obs,condition_code,H,diameter,albedo,spec_B,spec_T,source,data_arc,n_obs_used',
  }).toString();
}

function buildAsterankUrl(limit, sort = 'moid') {
  return 'https://aster-proxy.hudsonclavin.workers.dev/api/asterank?' + new URLSearchParams({
    query: JSON.stringify({ neo: 'Y' }),
    limit: String(limit),
    sort,
    fields: 'pdes,full_name,a,e,i,om,w,ma,epoch,H,spec,profit,delta_v,price,closeness,neo,pha,class,diameter,albedo,moid,last_obs,condition_code',
  }).toString();
}

function getNhatsMetricValue(value, key) {
  if (value && typeof value === 'object') {
    const nested = parsePositiveOrNull(value[key]);
    if (nested !== null) return nested;
    for (const candidate of Object.values(value)) {
      const parsed = parsePositiveOrNull(candidate);
      if (parsed !== null) return parsed;
    }
    return null;
  }
  return parseFiniteOrNull(value);
}

function normalizeNhatsRow(row) {
  if (!row) return null;
  const isArr = Array.isArray(row);
  const des = normalizeDesignation(isArr ? row[0] : (row.des ?? row.pdes));
  const fullname = normalizeDesignation(isArr ? row[1] : (row.fullname ?? row.full_name));
  const minDv = getNhatsMetricValue(isArr ? row[4] : (row.min_dv ?? row.minDv), 'dv');
  const minDur = getNhatsMetricValue(isArr ? row[5] : (row.min_dur ?? row.minDur), 'dur');
